{"type": "FeatureCollection", "features": [ {"type": "Feature", "properties": {"norad_id": 37926, "name": "FENGYUN 1C DEB", "group": "fengyun-1c-debris", "lat": 73.45301695788854, "lon": -93.17484737887224, "alt_km": 810.9063815958125, "timestamp": "2025-12-18T13:51:49.973534+00:00", "meta": {"OBJECT_NAME": "FENGYUN 1C DEB", "OBJECT_ID": "1999-025EPB", "EPOCH": "2025-12-17T23:02:00.359232", "MEAN_MOTION": 14.24254635, "ECCENTRICITY": 0.00543945, "INCLINATION": 98.7241, "RA_OF_ASC_NODE": 55.0926, "ARG_OF_PERICENTER": 206.4638, "MEAN_ANOMALY": 331.673, "EPHEMERIS_TYPE": 0, "CLASSIFICATION_TYPE": "U", "NORAD_CAT_ID": 37926, "ELEMENT_SET_NO": 999, "REV_AT_EPOCH": 74344, "BSTAR": 0.0011908764, "MEAN_MOTION_DOT": 2.746e-05, "MEAN_MOTION_DDOT": 0}, "tle": {"line1": "1 37926U 99025EPB 25351.95972638  .00002746  00000+0  11909-2 0  9997", "line2": "2 37926  98.7241  55.0926 0054394 206.4638 331.6730 14.24254635743442"}}, "geometry": {"type": "Point", "coordinates": [-93.17484737887224, 73.45301695788854]}}, {"type": "Feature", "properties": {"norad_id": 37927, "name": "FENGYUN 1C DEB", "group": "fengyun-1c-debris", "lat": -8.01678537243446, "lon": 137.99022687821096, "alt_km": 659.0300686753435, "timestamp": "2025-12-18T13:51:49.973545+00:00", "meta": {"OBJECT_NAME": "FENGYUN 1C DEB", "OBJECT_ID": "1999-025EPC", "EPOCH": "2025-12-17T05:16:20.802144", "MEAN_MOTION": 14.71959072, "ECCENTRICITY": 0.0008325, "INCLINATION": 98.8067, "RA_OF_ASC_NODE": 135.2699, "ARG_OF_PERICENTER": 262.0279, "MEAN_ANOMALY": 97.9981, "EPHEMERIS_TYPE": 0, "CLASSIFICATION_TYPE": "U", "NORAD_CAT_ID": 37927, "ELEMENT_SET_NO": 999, "REV_AT_EPOCH": 65182, "BSTAR": 0.0033385946, "MEAN_MOTION_DOT": 0.00020951, "MEAN_MOTION_DDOT": 0}, "tle": {"line1": "1 37927U 99025EPC 25351.21968521  .00020951  00000+0  33386-2 0  9994", "line2": "2 37927  98.8067 135.2699 0008325 262.0279  97.9981 14.71959072651829"}}, "geometry": {"type": "Point", "coordinates": [137.99022687821096, -8.01678537243446]}}, {"type": "Feature", "properties": {"norad_id": 37928, "name": "FENGYUN 1C DEB", "group": "fengyun-1c-debris", "lat": -76.58660817623034, "lon": -91.44871307391496, "alt_km": 780.3418237797014, "timestamp": "2025-12-18T13:51:49.973555+00:00", "meta": {"OBJECT_NAME": "FENGYUN 1C DEB", "OBJECT_ID": "1999-025EPD", "EPOCH": "2025-12-15T09:22:08.363712", "MEAN_MOTION": 14.37112428, "ECCENTRICITY": 0.00730461, "INCLINATION": 98.9158, "RA_OF_ASC_NODE": 224.0834, "ARG_OF_PERICENTER": 25.3937, "MEAN_ANOMALY": 335.0809, "EPHEMERIS_TYPE": 0, "CLASSIFICATION_TYPE": "U", "NORAD_CAT_ID": 37928, "ELEMENT_SET_NO": 999, "REV_AT_EPOCH": 81230, "BSTAR": 0.00052318414, "MEAN_MOTION_DOT": 1.555e-05, "MEAN_MOTION_DDOT": 0}, "tle": {"line1": "1 37928U 99025EPD 25349.39037458  .00001555  00000+0  52318-3 0  9993", "line2": "2 37928  98.9158 224.0834 0073046  25.3937 335.0809 14.37112428812308"}}, "geometry": {"type": "Point", "coordinates": [-91.44871307391496, -76.58660817623034]}}, {"type": "Feature", "properties": {"norad_id": 38116, "name": "FENGYUN 1C DEB", "group": "fengyun-1c-debris", "lat": -58.64289362616982, "lon": -163.38255151501832, "alt_km": 859.7548316449411, "timestamp": "2025-12-18T13:51:49.973565+00:00", "meta": {"OBJECT_NAME": "FENGYUN 1C DEB", "OBJECT_ID": "1999-025EPM", "EPOCH": "2025-12-13T09:07:05.482848", "MEAN_MOTION": 14.17018726, "ECCENTRICITY": 0.00724721, "INCLINATION": 98.7128, "RA_OF_ASC_NODE": 26.1003, "ARG_OF_PERICENTER": 144.8988, "MEAN_ANOMALY": 233.7196, "EPHEMERIS_TYPE": 0, "CLASSIFICATION_TYPE": "U", "NORAD_CAT_ID": 38116, "ELEMENT_SET_NO": 999, "REV_AT_EPOCH": 64494, "BSTAR": 0.00072544359, "MEAN_MOTION_DOT": 1.454e-05, "MEAN_MOTION_DDOT": 0}, "tle": {"line1": "1 38116U 99025EPM 25347.37992457  .00001454  00000+0  72544-3 0  9999", "line2": "2 38116  98.7128  26.1003 0072472 144.8988 233.7196 14.17018726644947"}}, "geometry": {"type": "Point", "coordinates": [-163.38255151501832, -58.64289362616982]}}, {"type": "Feature", "properties": {"norad_id": 38121, "name": "FENGYUN 1C DEB", "group": "fengyun-1c-debris", "lat": -70.94556122727504, "lon": -63.451292841649085, "alt_km": 942.4649985948381, "timestamp": "2025-12-18T13:51:49.973575+00:00", "meta": {"OBJECT_NAME": "FENGYUN 1C DEB", "OBJECT_ID": "1999-025EPS", "EPOCH": "2025-12-13T04:20:01.430304", "MEAN_MOTION": 14.21784212, "ECCENTRICITY": 0.02064826, "INCLINATION": 99.1148, "RA_OF_ASC_NODE": 138.6695, "ARG_OF_PERICENTER": 126.4735, "MEAN_ANOMALY": 235.5664, "EPHEMERIS_TYPE": 0, "CLASSIFICATION_TYPE": "U", "NORAD_CAT_ID": 38121, "ELEMENT_SET_NO": 999, "REV_AT_EPOCH": 83926, "BSTAR": 0.0016630973, "MEAN_MOTION_DOT": 4.5e-05, "MEAN_MOTION_DDOT": 0}, "tle": {"line1": "1 38121U 99025EPS 25347.18057211  .00004500  00000+0  16631-2 0  9993", "line2": "2 38121  99.1148 138.6695 0206482 126.4735 235.5664 14.21784212839268"}}, "geometry": {"type": "Point", "coordinates": [-63.451292841649085, -70.94556122727504]}}, {"type": "Feature", "properties": {"norad_id": 38122, "name": "FENGYUN 1C DEB", "group": "fengyun-1c-debris", "lat": -80.96090406011139, "lon": 108.00386452618118, "alt_km": 852.8819015733443, "timestamp": "2025-12-18T13:51:49.973586+00:00", "meta": {"OBJECT_NAME": "FENGYUN 1C DEB", "OBJECT_ID": "1999-025EPT", "EPOCH": "2025-12-17T06:41:14.723232", "MEAN_MOTION": 14.42662555, "ECCENTRICITY": 0.02278663, "INCLINATION": 98.3178, "RA_OF_ASC_NODE": 353.606, "ARG_OF_PERICENTER": 143.1818, "MEAN_ANOMALY": 218.5268, "EPHEMERIS_TYPE": 0, "CLASSIFICATION_TYPE": "U", "NORAD_CAT_ID": 38122, "ELEMENT_SET_NO": 999, "REV_AT_EPOCH": 67804, "BSTAR": 0.00027565513, "MEAN_MOTION_DOT": 1.203e-05, "MEAN_MOTION_DDOT": 0}, "tle": {"line1": "1 38122U 99025EPT 25351.27864263  .00001203  00000+0  27566-3 0  9999", "line2": "2 38122  98.3178 353.6060 0227866 143.1818 218.5268 14.42662555678041"}}, "geometry": {"type": "Point", "coordinates": [108.00386452618118, -80.96090406011139]}}, {"type": "Feature", "properties": {"norad_id": 38124, "name": "FENGYUN 1C DEB", "group": "fengyun-1c-debris", "lat": -36.771620429820295, "lon": 117.95653029958534, "alt_km": 1029.6466135327491, "timestamp": "2025-12-18T13:51:49.973597+00:00", "meta": {"OBJECT_NAME": "FENGYUN 1C DEB", "OBJECT_ID": "1999-025EPV", "EPOCH": "2025-12-13T03:48:53.053632", "MEAN_MOTION": 13.40935403, "ECCENTRICITY": 0.03557245, "INCLINATION": 97.8087, "RA_OF_ASC_NODE": 299.6458, "ARG_OF_PERICENTER": 305.0279, "MEAN_ANOMALY": 51.7953, "EPHEMERIS_TYPE": 0, "CLASSIFICATION_TYPE": "U", "NORAD_CAT_ID": 38124, "ELEMENT_SET_NO": 999, "REV_AT_EPOCH": 54587, "BSTAR": 0.00060323956, "MEAN_MOTION_DOT": 4.51e-06, "MEAN_MOTION_DDOT": 0}, "tle": {"line1": "1 38124U 99025EPV 25347.15894738  .00000451  00000+0  60324-3 0  9996", "line2": "2 38124  97.8087 299.6458 0355724 305.0279  51.7953 13.40935403545875"}}, "geometry": {"type": "Point", "coordinates": [117.95653029958534, -36.771620429820295]}}, {"type": "Feature", "properties": {"norad_id": 38130, "name": "FENGYUN 1C DEB", "group": "fengyun-1c-debris", "lat": -33.212556597467064, "lon": 49.42183810193194, "alt_km": 1047.2962045987915, "timestamp": "2025-12-18T13:51:49.973608+00:00", "meta": {"OBJECT_NAME": "FENGYUN 1C DEB", "OBJECT_ID": "1999-025EQB", "EPOCH": "2025-11-28T09:19:02.490528", "MEAN_MOTION": 13.7720595, "ECCENTRICITY": 0.02085156, "INCLINATION": 98.6035, "RA_OF_ASC_NODE": 25.4413, "ARG_OF_PERICENTER": 263.5047, "MEAN_ANOMALY": 94.2329, "EPHEMERIS_TYPE": 0, "CLASSIFICATION_TYPE": "U", "NORAD_CAT_ID": 38130, "ELEMENT_SET_NO": 999, "REV_AT_EPOCH": 69085, "BSTAR": 0.0016964005, "MEAN_MOTION_DOT": 1.933e-05, "MEAN_MOTION_DDOT": 0}, "tle": {"line1": "1 38130U 99025EQB 25332.38822327  .00001933  00000+0  16964-2 0  9993", "line2": "2 38130  98.6035  25.4413 0208515 263.5047  94.2329 13.77205950690851"}}, "geometry": {"type": "Point", "coordinates": [49.42183810193194, -33.212556597467064]}}, {"type": "Feature", "properties": {"norad_id": 38135, "name": "FENGYUN 1C DEB", "group": "fengyun-1c-debris", "lat": -79.19287283641523, "lon": 176.30888226862493, "alt_km": 953.9440356827099, "timestamp": "2025-12-18T13:51:49.973630+00:00", "meta": {"OBJECT_NAME": "FENGYUN 1C DEB", "OBJECT_ID": "1999-025EQG", "EPOCH": "2025-12-04T09:59:10.811040", "MEAN_MOTION": 14.2524882, "ECCENTRICITY": 0.0223375, "INCLINATION": 98.6606, "RA_OF_ASC_NODE": 35.2993, "ARG_OF_PERICENTER": 95.5388, "MEAN_ANOMALY": 267.1312, "EPHEMERIS_TYPE": 0, "CLASSIFICATION_TYPE": "U", "NORAD_CAT_ID": 38135, "ELEMENT_SET_NO": 999, "REV_AT_EPOCH": 60922, "BSTAR": 0.00083169, "MEAN_MOTION_DOT": 2.494e-05, "MEAN_MOTION_DDOT": 0}, "tle": {"line1": "1 38135U 99025EQG 25338.41609735  .00002494  00000+0  83169-3 0  9999", "line2": "2 38135  98.6606  35.2993 0223375  95.5388 267.1312 14.25248820609225"}}, "geometry": {"type": "Point", "coordinates": [176.30888226862493, -79.19287283641523]}}, {"type": "Feature", "properties": {"norad_id": 38137, "name": "FENGYUN 1C DEB", "group": "fengyun-1c-debris", "lat": -27.470828652560833, "lon": -149.45448723913813, "alt_km": 908.6592647772004, "timestamp": "2025-12-18T13:51:49.973641+00:00", "meta": {"OBJECT_NAME": "FENGYUN 1C DEB", "OBJECT_ID": "1999-025EQJ", "EPOCH": "2025-12-11T22:03:53.453088", "MEAN_MOTION": 14.06158007, "ECCENTRICITY": 0.0046494, "INCLINATION": 98.8649, "RA_OF_ASC_NODE": 28.6821, "ARG_OF_PERICENTER": 71.683, "MEAN_ANOMALY": 288.9388, "EPHEMERIS_TYPE": 0, "CLASSIFICATION_TYPE": "U", "NORAD_CAT_ID": 38137, "ELEMENT_SET_NO": 999, "REV_AT_EPOCH": 63697, "BSTAR": 0.00049172, "MEAN_MOTION_DOT": 7.73e-06, "MEAN_MOTION_DDOT": 0}, "tle": {"line1": "1 38137U 99025EQJ 25345.91936867  .00000773  00000+0  49172-3 0  9997", "line2": "2 38137  98.8649  28.6821 0046494  71.6830 288.9388 14.06158007636976"}}, "geometry": {"type": "Point", "coordinates": [-149.45448723913813, -27.470828652560833]}}]}